0 DELTA 1 DEB
1 15788U 78026GT  13283.80800858  .00000460  00000-0  40203-3 0  1169
2 15788 098.8812 017.3044 0126085 276.0171 210.8050 13.87143322560272
0 DELTA 1 DEB
1 15788U 78026GT  13286.24064814  .00000431  00000-0  37884-3 0  1174
2 15788 098.8834 019.6193 0125797 269.3518 118.7936 13.87146486560616
0 DELTA 1 DEB
1 15788U 78026GT  13289.20562355  .00000586  00000-0  50335-3 0  1184
2 15788 098.8829 022.4375 0125799 261.2670 165.1403 13.87152077561020
0 DELTA 1 DEB
1 15788U 78026GT  13291.21766929  .00000721  00000-0  61151-3 0  1191
2 15788 098.8819 024.3495 0125817 255.7772 132.8174 13.87153298561308
0 DELTA 1 DEB
1 15788U 78026GT  13293.76872296  .00000717  00000-0  60757-3 0  1206
2 15788 098.8817 026.7748 0126013 248.8356 272.1789 13.87158116561655
0 DELTA 1 DEB
1 15788U 78026GT  13295.78196634  .00000686  00000-0  58295-3 0  1215
2 15788 098.8816 028.6886 0126120 243.3553 245.8734 13.87161863561937
